STARLINK-1817
1 26715C 20073AX  21325.16735830 -.00002832  00000-0 -18971-3 0  3250
2 26715  53.0546  87.4825 0001408  76.5534 330.3394 15.06410343    18
